NORAD_CAT_ID,OBJECT_NAME,OBJECT_TYPE,EPOCH,MEAN_MOTION,ECCENTRICITY,INCLINATION,RA_OF_ASC_NODE,ARG_OF_PERICENTER,MEAN_ANOMALY,BSTAR,MEAN_MOTION_DOT,MEAN_MOTION_DDOT,TLE_LINE0,TLE_LINE1,TLE_LINE2,SEMIMAJOR_AXIS,PERIOD,APOGEE,PERIGEE,DECAYED
52645.0,STARLINK-3973,PAYLOAD,2022-06-20 22:00:00,15.73190072,0.0002332,53.2143,256.0656,19.2296,55.3286,0.00016007,0.00021894,0.0,0 STARLINK-3973,1 52645U 22052AZ  22171.91667824  .00021894  00000-0  16007-3 0  9990,2 52645  53.2143 256.0656 0002332  19.2296  55.3286 15.73190072  1309,6727.9230000000025,91.534,351.357,348.22,0.0
52645.0,STARLINK-3973,PAYLOAD,2022-06-21 04:00:00,15.73162962,0.0002372,53.2176,254.8254,26.981,24.1902,0.00048437,0.00067805,0.0,0 STARLINK-3973,1 52645U 22052AZ  22172.16667824  .00067805  00000-0  48437-3 0  9992,2 52645  53.2176 254.8254 0002372  26.9810  24.1902 15.73162962  6262,6728.001,91.535,351.462,348.27,0.0
52645.0,STARLINK-3973,PAYLOAD,2022-06-21 12:00:00,15.73190887,0.0002591,53.2141,253.1796,25.1074,115.1172,-0.00012316,-0.00017866,0.0,0 STARLINK-3973,1 52645U 22052AZ  22172.50001157 -.00017866  00000-0 -12316-3 0  9992,2 52645  53.2141 253.1796 0002591  25.1074 115.1172 15.73190887  6316,6727.920999999999,91.534,351.529,348.043,0.0
52645.0,STARLINK-3973,PAYLOAD,2022-06-21 14:00:01,15.73193437,0.0002626,53.2142,252.7677,24.2233,228.2282,-0.00019794,-0.00028305,0.0,0 STARLINK-3973,1 52645U 22052AZ  22172.58334491 -.00028305  00000-0 -19794-3 0  9997,2 52645  53.2142 252.7677 0002626  24.2233 228.2282 15.73193437  1302,6727.9140000000025,91.534,351.546,348.01199999999994,0.0
52645.0,STARLINK-3973,PAYLOAD,2022-06-21 22:00:00,15.73165494,0.0002421,53.2138,251.1166,21.7015,319.6717,0.00013195,0.00017911,0.0,0 STARLINK-3973,1 52645U 22052AZ  22172.91667824  .00017911  00000-0  13195-3 0  9991,2 52645  53.2138 251.1166 0002421  21.7015 319.6717 15.73165494  1306,6727.994000000002,91.535,351.487,348.23,0.0
52645.0,STARLINK-3973,PAYLOAD,2022-06-22 04:00:00,15.73189949,0.0002271,53.214,249.8785,20.5805,297.459,9.2957e-05,0.00012439,0.0,0 STARLINK-3973,1 52645U 22052AZ  22173.16667824  .00012439  00000-0  92957-4 0  9993,2 52645  53.2140 249.8785 0002271  20.5805 297.4590 15.73189949  6417,6727.924,91.534,351.31699999999995,348.261,0.0
52645.0,STARLINK-3973,PAYLOAD,2022-06-22 14:00:01,15.73128564,0.0002557,53.2144,247.819,15.0137,144.1758,0.00052952,0.00074132,0.0,0 STARLINK-3973,1 52645U 22052AZ  22173.58334491  .00074132  00000-0  52952-3 0  9998,2 52645  53.2144 247.8190 0002557  15.0137 144.1758 15.73128564  6480,6728.099,91.537,351.684,348.24300000000005,0.0
52645.0,STARLINK-3973,PAYLOAD,2022-06-22 22:00:00,15.73200231,0.0002481,53.2145,246.1679,15.1562,232.9186,0.00017136,0.00023498,0.0,0 STARLINK-3973,1 52645U 22052AZ  22173.91667824  .00023498  00000-0  17136-3 0  9998,2 52645  53.2145 246.1679 0002481  15.1562 232.9186 15.73200231  1303,6727.895,91.533,351.42900000000014,348.09,0.0
52645.0,STARLINK-3973,PAYLOAD,2022-06-23 12:00:00,15.73218227,0.0002663,53.2142,243.2824,15.2991,298.4364,-0.00017706,-0.0002542,0.0,0 STARLINK-3973,1 52645U 22052AZ  22174.50001157 -.00025420  00000-0 -17706-3 0  9997,2 52645  53.2142 243.2824 0002663  15.2991 298.4364 15.73218227  6628,6727.843000000003,91.532,351.5,347.917,0.0
52645.0,STARLINK-3973,PAYLOAD,2022-06-23 14:00:01,15.73183198,0.0002697,53.2143,242.8704,14.2895,51.6928,0.00031295,0.00043501,0.0,0 STARLINK-3973,1 52645U 22052AZ  22174.58334491  .00043501  00000-0  31295-3 0  9992,2 52645  53.2143 242.8704 0002697  14.2895  51.6928 15.73183198  1303,6727.943,91.534,351.62300000000016,347.994,0.0
52645.0,STARLINK-3973,PAYLOAD,2022-06-23 22:00:00,15.73202504,0.0002575,53.2139,241.2191,15.7714,139.14700000000002,-0.00023184,-0.00033041,0.0,0 STARLINK-3973,1 52645U 22052AZ  22174.91667824 -.00033041  00000-0 -23184-3 0  9996,2 52645  53.2139 241.2191 0002575  15.7714 139.1470 15.73202504  1309,6727.888000000001,91.533,351.485,348.021,0.0
52645.0,STARLINK-3973,PAYLOAD,2022-06-24 12:00:00,15.73211161,0.0002753,53.2142,238.3339,16.3645,204.253,-0.00039694,-0.00055999,0.0,0 STARLINK-3973,1 52645U 22052AZ  22175.50001157 -.00055999  00000-0 -39694-3 0  9992,2 52645  53.2142 238.3339 0002753  16.3645 204.2530 15.73211161  6789,6727.863,91.533,351.581,347.876,0.0
52645.0,STARLINK-3973,PAYLOAD,2022-06-24 14:00:01,15.73171229,0.0002767,53.2143,237.9218,15.4888,317.3716,0.00012464,0.00016887,0.0,0 STARLINK-3973,1 52645U 22052AZ  22175.58334491  .00016887  00000-0  12464-3 0  9997,2 52645  53.2143 237.9218 0002767  15.4888 317.3716 15.73171229  1300,6727.977,91.535,351.704,347.981,0.0
52645.0,STARLINK-3973,PAYLOAD,2022-06-24 20:00:01,15.73189247,0.0002695,53.2143,236.6833,13.7603,295.7681,-1.1799000000000003e-05,-2.277e-05,0.0,0 STARLINK-3973,1 52645U 22052AZ  22175.83334491 -.00002277  00000-0 -11799-4 0  9996,2 52645  53.2143 236.6833 0002695  13.7603 295.7681 15.73189247  6837,6727.926,91.534,351.60400000000016,347.978,0.0
52645.0,STARLINK-3973,PAYLOAD,2022-06-24 22:00:01,15.73176843,0.0002609,53.2145,236.2704,13.8046,48.0211,0.00023441,0.00032375,0.0,0 STARLINK-3973,1 52645U 22052AZ  22175.91668981  .00032375  00000-0  23441-3 0  9995,2 52645  53.2145 236.2704 0002609  13.8046  48.0211 15.73176843  1302,6727.9609999999975,91.535,351.582,348.071,0.0
52645.0,STARLINK-3973,PAYLOAD,2022-06-25 14:00:01,15.73154255,0.0002907,53.214,232.9733,11.3488,228.2714,0.00045632,0.00063792,0.0,0 STARLINK-3973,1 52645U 22052AZ  22176.58334491  .00063792  00000-0  45632-3 0  9998,2 52645  53.2140 232.9733 0002907  11.3488 228.2714 15.73154255  1309,6728.026,91.536,351.846,347.935,0.0
52645.0,STARLINK-3973,PAYLOAD,2022-06-25 20:00:01,15.73209348,0.0002752,53.2136,231.7347,11.9223,204.3725,-1.4812e-05,-2.702e-05,0.0,0 STARLINK-3973,1 52645U 22052AZ  22176.83334491 -.00002702  00000-0 -14812-4 0  9999,2 52645  53.2136 231.7347 0002752  11.9223 204.3725 15.73209348  6994,6727.869000000002,91.533,351.585,347.88199999999995,0.0
52645.0,STARLINK-3973,PAYLOAD,2022-06-25 22:00:00,15.73192572,0.0002654,53.2137,231.3219,12.5105,316.0232,0.00030667,0.00042628,0.0,0 STARLINK-3973,1 52645U 22052AZ  22176.91667824  .00042628  00000-0  30667-3 0  9991,2 52645  53.2137 231.3219 0002654  12.5105 316.0232 15.73192572  1300,6727.916,91.534,351.56699999999995,347.996,0.0
52645.0,STARLINK-3973,PAYLOAD,2022-06-26 04:00:00,15.73227028,0.0002583999999999,53.2138,230.0844,13.206,292.0282,0.00037328,0.00052159,0.0,0 STARLINK-3973,1 52645U 22052AZ  22177.16667824  .00052159  00000-0  37328-3 0  9990,2 52645  53.2138 230.0844 0002584  13.2060 292.0282 15.73227028  7041,6727.818,91.532,351.422,347.945,0.0
52645.0,STARLINK-3973,PAYLOAD,2022-06-26 12:00:00,15.73262484,0.0002872,53.2139,228.4369,11.1658,23.0654,-0.00030176,-0.00042881,0.0,0 STARLINK-3973,1 52645U 22052AZ  22177.50001157 -.00042881  00000-0 -30176-3 0  9996,2 52645  53.2139 228.4369 0002872  11.1658  23.0654 15.73262484  7090,6727.717,91.53,351.514,347.65,0.0
52645.0,STARLINK-3973,PAYLOAD,2022-06-26 14:00:01,15.73233725,0.0002925,53.2138,228.0246,10.1442,136.4109,-1.1811e-05,-2.283e-05,0.0,0 STARLINK-3973,1 52645U 22052AZ  22177.58335648 -.00002283  00000-0 -11811-4 0  9997,2 52645  53.2138 228.0246 0002925  10.1442 136.4109 15.73233725  1306,6727.799,91.531,351.63199999999995,347.696,0.0
52645.0,STARLINK-3973,PAYLOAD,2022-06-26 22:00:00,15.73179128,0.0002829,53.214,226.373,13.7456,221.7158,0.00028828,0.00039999,0.0,0 STARLINK-3973,1 52645U 22052AZ  22177.91667824  .00039999  00000-0  28828-3 0  9995,2 52645  53.2140 226.3730 0002829  13.7456 221.7158 15.73179128  1303,6727.955,91.534,351.723,347.916,0.0
52645.0,STARLINK-3973,PAYLOAD,2022-06-27 04:00:00,15.73204252,0.0002797,53.2178,225.133,18.6723,193.2966,8.9803e-06,6.38e-06,0.0,0 STARLINK-3973,1 52645U 22052AZ  22178.16667824  .00000638  00000-0  89803-5 0  9993,2 52645  53.2178 225.1330 0002797  18.6723 193.2966 15.73204252  7204,6727.8830000000025,91.533,351.63,347.866,0.0
52645.0,STARLINK-3973,PAYLOAD,2022-06-27 14:00:01,15.73194847,0.0003088,53.2132,223.0761,13.3154,39.9149,0.00031889,0.00044368,0.0,0 STARLINK-3973,1 52645U 22052AZ  22178.58334491  .00044368  00000-0  31889-3 0  9997,2 52645  53.2132 223.0761 0003088  13.3154  39.9149 15.73194847  1305,6727.91,91.533,351.852,347.69699999999995,0.0
52645.0,STARLINK-3973,PAYLOAD,2022-06-27 20:00:01,15.73234642,0.000283,53.213,221.8372,11.9564,18.0514,-0.00046273,-0.00065174,0.0,0 STARLINK-3973,1 52645U 22052AZ  22178.83335648 -.00065174  00000-0 -46273-3 0  9993,2 52645  53.2130 221.8372 0002830  11.9564  18.0514 15.73234642  7308,6727.795999999999,91.531,351.565,347.75699999999995,0.0
52645.0,STARLINK-3973,PAYLOAD,2022-06-27 22:00:00,15.73186397,0.0002778,53.213,221.4244,10.9116,131.2825,0.00017513,0.00024016,0.0,0 STARLINK-3973,1 52645U 22052AZ  22178.91667824  .00024016  00000-0  17513-3 0  9999,2 52645  53.2130 221.4244 0002778  10.9116 131.2825 15.73186397  1305,6727.934,91.534,351.668,347.93,0.0
52645.0,STARLINK-3973,PAYLOAD,2022-06-28 12:00:00,15.73203864,0.0003027,53.2133,218.5399,9.6068,198.1771,-0.00026724,-0.00037975,0.0,0 STARLINK-3973,1 52645U 22052AZ  22179.50001157 -.00037975  00000-0 -26724-3 0  9990,2 52645  53.2133 218.5399 0003027   9.6068 198.1771 15.73203864  7414,6727.884,91.533,351.786,347.713,0.0
52645.0,STARLINK-3973,PAYLOAD,2022-06-28 14:00:01,15.73188964,0.0003044,53.213,218.1275,8.0012,312.018,-0.00013321,-0.00019271,0.0,0 STARLINK-3973,1 52645U 22052AZ  22179.58334491 -.00019271  00000-0 -13321-3 0  9996,2 52645  53.2130 218.1275 0003044   8.0012 312.0180 15.73188964  1307,6727.927,91.534,351.84,347.744,0.0
52645.0,STARLINK-3973,PAYLOAD,2022-06-28 20:00:01,15.73056878,0.0002581,53.2133,216.8888,15.0833,281.5095,4.990600000000001e-05,6.347e-05,0.0,0 STARLINK-3973,1 52645U 22052AZ  22179.83334491  .00006347  00000-0  49906-4 0  9991,2 52645  53.2133 216.8888 0002581  15.0833 281.5095 15.73056878  7465,6728.303000000001,91.542,351.905,348.432,0.0
